STARLINK-31630          
1 59271U 24050T   26068.56880718 -.00002063  00000+0 -57526-4 0  9991
2 59271  53.1600 168.5079 0001409  92.3163 267.7999 15.30200807110710
STARLINK-32471          
1 61968U 24210K   26068.30222462  .00035320  00000+0  12879-2 0  9993
2 61968  42.9997 174.8458 0002720 301.3663  58.6923 15.27553156 74949
